LUCKY-7                 
1 44406U 19038W   24119.72810956  .00037453  00000+0  93462-3 0  9992
2 44406  97.7044 115.1528 0011048 260.6750  99.3246 15.40033182266749
BEESAT 9                
1 44412U 19038AC  24119.56528083  .00234784  00000+0  16425-2 0  9997
2 44412  97.6810 122.8820 0007396 191.0397 169.0705 15.73535548266970
JAISAT-1                
1 44419U 19038F   24119.53599305  .00207308  00000+0  15730-2 0  9996
2 44419  97.6787 123.8347 0007052 189.7879 170.3246 15.71691714267346
DUCHIFAT-3              
1 44854U 19089C   24119.91153800  .00015436  00000+0  82126-3 0  9996
2 44854  36.9585 347.7980 0007430  24.8545 335.2558 15.14588333240720
M2 PATHFINDER           
1 45727U 20037E   24119.45360582  .00005549  00000+0  49061-3 0  9992
2 45727  97.7766 296.1730 0009883 293.2786  66.7394 14.96695110208504
NETSAT-4                
1 46504U 20068U   24119.58872536  .00011511  00000+0  63741-3 0  9998
2 46504  97.8034  75.4466 0010949 159.8285 200.3381 15.13948586196660
NETSAT-3                
1 46505U 20068V   24119.35735835  .00014399  00000+0  80733-3 0  9991
2 46505  97.8002  74.7770 0009829 168.5649 191.5806 15.13455016196622
NETSAT-1                
1 46506U 20068W   24119.81988033  .00009485  00000+0  55481-3 0  9995
2 46506  97.8027  74.8297 0008143 176.2220 183.9072 15.12056623196668
NETSAT-2                
1 46507U 20068X   24119.60295357  .00012073  00000+0  67031-3 0  9994
2 46507  97.8021  75.1100 0007357 177.8933 182.2330 15.13868399196610
WILDTRACKCUBE-SIMBA     
1 47941U 21022K   24119.88740101  .00013649  00000+0  63751-3 0  9995
2 47941  97.4650  17.1383 0014372 323.3902  36.6349 15.19838303170976
BEESAT-6                
1 47957U 21022AB  24119.70267397  .00122790  00000+0  20002-2 0  9993
2 47957  97.4457  25.6609 0002675 260.6220  99.4730 15.52195436171345
SMOG-1                  
1 47964U 21022AJ  24119.73907809  .00103822  00000+0  17376-2 0  9998
2 47964  97.4680  28.7718 0004171 233.8951 126.1915 15.51501961170538
BCCSAT-1                
1 48041U 21022AK  24119.70958453  .00059054  00000+0  14154-2 0  9991
2 48041  97.4666  25.4766 0004290 260.6048  99.4713 15.41199824170294
BEESAT-5                
1 48083U 21022AM  24119.72882505  .00179811  00000+0  22017-2 0  9994
2 48083  97.4240  26.7139 0002333 189.3497 170.7717 15.59765623170592
BEESAT-7                
1 48084U 21022AN  24119.69798586  .00096087  00000+0  17962-2 0  9992
2 48084  97.4623  25.8913 0004653 263.6492  96.4229 15.48380685170070
BEESAT-8                
1 48085U 21022AP  24118.69974283  .00040392  00000+0  14163-2 0  9990
2 48085  97.4786  20.3757 0010515 313.4877  46.5488 15.29282903170157
LEDSAT                  
1 49069U 21073D   24119.74190911  .00017759  00000+0  75543-3 0  9995
2 49069  97.4393 191.2664 0021209  99.3157 261.0479 15.22865904148927
SITRO-AIS 5 (KATYS)     
1 57176U 23091L   24119.85681810  .00007866  00000+0  52080-3 0  9999
2 57176  97.6167 172.4864 0016273 290.8399  69.1085 15.07492524 46069
SITRO-AIS 6 (CHIRKIN)   
1 57192U 23091AC  24119.84396743  .00007800  00000+0  51569-3 0  9993
2 57192  97.6157 172.4950 0016320 290.4813  69.4663 15.07550885 46062
SITRO-AIS 8 (ANOKHIN)   
1 57193U 23091AD  24119.82123092  .00008915  00000+0  58468-3 0  9990
2 57193  97.6166 172.5182 0016036 291.7063  68.2457 15.07805802 46066
SITRO-AIS 7 (FARTUSHNIY)
1 57194U 23091AE  24119.84760412  .00007887  00000+0  52195-3 0  9994
2 57194  97.6158 172.4847 0016135 291.1227  68.8276 15.07510368 46066
SITRO-AIS 10 (BURDAEV)  
1 57199U 23091AK  24119.84922348  .00009331  00000+0  58483-3 0  9999
2 57199  97.6174 173.3040 0011093 278.4027  81.5944 15.09518562 46114
SITRO-AIS 9 (SHCHUKIN)  
1 57201U 23091AM  24119.84711399  .00009363  00000+0  58699-3 0  9999
2 57201  97.6169 173.2866 0011078 278.4240  81.5733 15.09506629 46114
SITRO-AIS 12 (SMIRENNIY)
1 57204U 23091AQ  24119.81565717  .00009966  00000+0  62131-3 0  9995
2 57204  97.6186 173.3667 0010899 272.0325  87.9655 15.09692918 46110
SITRO-AIS 11 (SHEFFER)  
1 57208U 23091AU  24119.87026261  .00009451  00000+0  58823-3 0  9993
2 57208  97.6184 173.4387 0010618 271.9992  88.0021 15.09771844 46125
SITRO-AIS 29            
1 59052U 24039B   24119.86896746  .00023289  00000+0  92182-3 0  9998
2 59052  97.3898  82.3758 0020240  39.0496 321.2199 15.25252215  9072
SITRO-AIS 30            
1 59053U 24039C   24119.86832665  .00022913  00000+0  90637-3 0  9995
2 59053  97.3895  82.3745 0020321  39.8028 320.4697 15.25275206  9063
SITRO-AIS 31            
1 59054U 24039D   24119.86506900  .00023560  00000+0  92922-3 0  9994
2 59054  97.3896  82.3788 0020192  39.7010 320.5701 15.25370153  9084
SITRO-AIS 33            
1 59055U 24039E   24119.86113671  .00023972  00000+0  94225-3 0  9999
2 59055  97.3898  82.3860 0019946  40.5075 319.7644 15.25484889  9071
SITRO-AIS 35            
1 59056U 24039F   24119.85901022  .00024392  00000+0  95754-3 0  9999
2 59056  97.3897  82.3880 0019781  40.6354 319.6356 15.25527249  9078
SITRO-AIS 32            
1 59057U 24039G   24119.86136295  .00023526  00000+0  92597-3 0  9993
2 59057  97.3898  82.3853 0019744  40.7450 319.5261 15.25447789  9071
SITRO-AIS 34            
1 59058U 24039H   24119.85999176  .00023642  00000+0  92957-3 0  9997
2 59058  97.3899  82.3883 0019935  40.5203 319.7514 15.25478796  9077
SITRO-AIS 36            
1 59059U 24039J   24119.85648323  .00024397  00000+0  95628-3 0  9999
2 59059  97.3897  82.3920 0019493  40.8523 319.4172 15.25583003  9070
SITRO-AIS 49            
1 59060U 24039K   24119.85577312  .00023884  00000+0  93643-3 0  9995
2 59060  97.3897  82.3925 0019472  40.5918 319.6767 15.25579820  9073
SITRO-AIS 50            
1 59061U 24039L   24119.85270576  .00025889  00000+0  10103-2 0  9994
2 59061  97.3897  82.3967 0019459  40.9158 319.3536 15.25719386  9079
SITRO-AIS 51            
1 59062U 24039M   24119.85176445  .00024289  00000+0  94818-3 0  9994
2 59062  97.3898  82.3981 0019391  40.6692 319.5990 15.25722524  9076
SITRO-AIS 52            
1 59063U 24039N   24119.84876550  .00023218  00000+0  90434-3 0  9999
2 59063  97.3898  82.4018 0019208  40.6490 319.6178 15.25809306  9075
SITRO-AIS 25            
1 59066U 24039R   24119.86734780  .00005808  00000+0  56294-3 0  9993
2 59066  95.4010  63.9842 0174950 151.8448 209.2369 14.82011160  8807
SITRO-AIS 26            
1 59067U 24039S   24119.86666586  .00004945  00000+0  47997-3 0  9993
2 59067  95.4009  63.9844 0174744 151.8740 209.2056 14.82016516  8807
SITRO-AIS 27            
1 59068U 24039T   24119.86216961  .00005711  00000+0  55237-3 0  9990
2 59068  95.4012  63.9903 0174494 151.7520 209.3301 14.82143164  8809
SITRO-AIS 28            
1 59071U 24039U   24119.86076563  .00005410  00000+0  52322-3 0  9994
2 59071  95.4012  63.9922 0174368 151.7501 209.3313 14.82173338  8802
BEIJING 1               
1 28890U 05043A   24119.82429298  .00000954  00000+0  19839-3 0  9990
2 28890  98.1926 243.0627 0014601 196.2220 163.8516 14.62266126986685
HUANJING 1A (HJ-1A)     
1 33320U 08041A   24119.87092297  .00002701  00000+0  36514-3 0  9996
2 33320  97.6333 129.3267 0020795 167.7266 192.4458 14.79672424843062
HUANJING 1B (HJ-1B)     
1 33321U 08041B   24119.88595050  .00001833  00000+0  24585-3 0  9993
2 33321  97.6289 133.8817 0037601 215.1128 144.7606 14.80047915843083
YAOGAN-4                
1 33446U 08061A   24119.79477918  .00002525  00000+0  34349-3 0  9993
2 33446  97.8775  52.6270 0016763  87.4545 272.8586 14.79554462830256
DEIMOS-1                
1 35681U 09041A   24119.81965230  .00001334  00000+0  21385-3 0  9990
2 35681  97.6803 304.3941 0001922 138.5088 221.6267 14.73207085792044
UK-DMC 2                
1 35683U 09041C   24119.82642723  .00001970  00000+0  31307-3 0  9993
2 35683  97.7747 269.5289 0001179 100.5744 259.5598 14.73143950791746
DMC3-FM1                
1 40715U 15032A   24119.86298133  .00001553  00000+0  19483-3 0  9996
2 40715  97.7568   0.2097 0007296  93.5594 266.6454 14.83541429474265
DMC3-FM2                
1 40716U 15032B   24119.88603304  .00001560  00000+0  19564-3 0  9997
2 40716  97.7620   1.2686 0009221  97.6116 262.6146 14.83545508474261
DMC3-FM3                
1 40717U 15032C   24119.90891917  .00001244  00000+0  15742-3 0  9993
2 40717  97.7668   2.5405 0010689  94.9955 265.2479 14.83503585474276
NOAA 15                 
1 25338U 98030A   24119.78966623  .00000415  00000+0  18972-3 0  9994
2 25338  98.5730 147.9395 0011548 108.0061 252.2379 14.26552352350393
DMSP 5D-3 F16 (USA 172) 
1 28054U 03048A   24119.90125986  .00000311  00000+0  18781-3 0  9993
2 28054  99.0222 125.9065 0007133 183.5452 239.0111 14.14005450 59314
NOAA 18                 
1 28654U 05018A   24119.78942864  .00000399  00000+0  23676-3 0  9991
2 28654  98.8748 197.1636 0014041 198.9123 161.1530 14.13184346976281
METEOSAT-9 (MSG-2)      
1 28912U 05049B   24119.67110498  .00000136  00000+0  00000+0 0  9991
2 28912   7.5739  61.2683 0000971 340.7091 102.4953  1.00267967 67265
EWS-G1 (GOES 13)        
1 29155U 06018A   24119.78660449  .00000046  00000+0  00000+0 0  9996
2 29155   2.4966  85.8160 0085301 253.9621 240.9282  0.99127999 65670
DMSP 5D-3 F17 (USA 191) 
1 29522U 06050A   24119.88258329  .00000332  00000+0  19571-3 0  9996
2 29522  98.7462 131.4739 0011179 117.2719 242.9595 14.14453202902220
FENGYUN 3A              
1 32958U 08026A   24119.81851428  .00000362  00000+0  19346-3 0  9993
2 32958  98.6004  68.3757 0008018 208.8499 151.2235 14.19068867824956
FENGYUN 2E              
1 33463U 08066A   24119.59304545  .00000024  00000+0  00000+0 0  9995
2 33463   7.4718  60.9526 0002555  21.0683 247.4908  0.99118083 56276
